STARLINK-36733          
1 67811U 26032Q   26069.25002315 -.00003589  00000+0 -23204-4 0  9998
2 67811  97.2842 255.8554 0001625 100.8638  40.8106 15.75186147  4874
STARLINK-36377          
1 67812U 26032R   26069.25002315 -.00006745  00000+0 -44390-4 0  9995
2 67812  97.2844 255.8618 0001373  80.2783  75.3983 15.75186929  4874
STARLINK-36732          
1 67813U 26032S   26069.22751619  .00159985  00000+0  10502-2 0  9990
2 67813  97.2848 255.8234 0001643  88.5658 271.5796 15.75263270  4872
STARLINK-36767          
1 67814U 26032T   26069.24727987  .00141658  00000+0  93280-3 0  9997
2 67814  97.2845 255.7964 0001344  78.3436 281.7980 15.75242862  4870
STARLINK-36797          
1 67815U 26032U   26069.23845781  .00081041  00000+0  53827-3 0  9992
2 67815  97.2849 255.8096 0001447  71.5904 288.5519 15.75223844  4873
STARLINK-36343          
1 67816U 26032V   26069.25002315 -.00037309  00000+0 -25036-3 0  9994
2 67816  97.2844 255.8696 0001506  85.0707  92.6061 15.75189316  4817
STARLINK-36756          
1 67817U 26032W   26069.22963382  .00113990  00000+0  75328-3 0  9990
2 67817  97.2845 255.8205 0001325  99.2316 260.9099 15.75241151  4869
STARLINK-36346          
1 67818U 26032X   26069.25002315 -.00040986  00000+0 -27523-3 0  9994
2 67818  97.2848 255.8806 0001688  83.2773 118.3974 15.75188891  4872
STARLINK-36788          
1 67819U 26032Y   26069.24056928  .00311536  00000+0  20022-2 0  9999
2 67819  97.2846 255.8057 0001277  70.2984 289.8419 15.75329153  4879
STARLINK-36353          
1 67820U 26032Z   26069.23669310  .00105174  00000+0  69607-3 0  9997
2 67820  97.2845 255.8108 0001435  81.8918 278.2510 15.75232485  4873
STARLINK-36644          
1 67821U 26033A   26069.00998279  .00302609  00000+0  13836-2 0  9997
2 67821  42.9990 269.5632 0001643 289.5078  70.5616 15.82115049  4673
STARLINK-36643          
1 67822U 26033B   26069.00923195  .00312654  00000+0  14268-2 0  9994
2 67822  42.9985 269.5560 0001764 263.9802  96.0868 15.82128842  4670
STARLINK-36646          
1 67823U 26033C   26069.00848402  .00317968  00000+0  14504-2 0  9998
2 67823  42.9983 269.5506 0001881 264.3700  95.6957 15.82124190  4677
STARLINK-36647          
1 67824U 26033D   26069.00773398  .00400088  00000+0  18052-2 0  9998
2 67824  42.9984 269.5445 0002336 279.4556  80.6051 15.82144721  4674
STARLINK-36648          
1 67825U 26033E   26069.00698184  .00387127  00000+0  17490-2 0  9991
2 67825  42.9984 269.5384 0002622 256.0985 103.9596 15.82150307  4672
STARLINK-35865          
1 67826U 26033F   26068.94310343  .00283558  00000+0  12998-2 0  9993
2 67826  42.9983 269.9180 0002081 256.8542 103.2098 15.82109633  4661
