[{"OBJECT_NAME":"STARLINK-36733","OBJECT_ID":"2026-032Q","EPOCH":"2026-03-10T06:00:02.000160","MEAN_MOTION":15.75186147,"ECCENTRICITY":0.00016254,"INCLINATION":97.2842,"RA_OF_ASC_NODE":255.8554,"ARG_OF_PERICENTER":100.8638,"MEAN_ANOMALY":40.8106,"EPHEMERIS_TYPE":0,"CLASSIFICATION_TYPE":"U","NORAD_CAT_ID":67811,"ELEMENT_SET_NO":999,"REV_AT_EPOCH":487,"BSTAR":-2.3204223e-5,"MEAN_MOTION_DOT":-3.589e-5,"MEAN_MOTION_DDOT":0},{"OBJECT_NAME":"STARLINK-36377","OBJECT_ID":"2026-032R","EPOCH":"2026-03-10T06:00:02.000160","MEAN_MOTION":15.75186929,"ECCENTRICITY":0.00013732,"INCLINATION":97.2844,"RA_OF_ASC_NODE":255.8618,"ARG_OF_PERICENTER":80.2783,"MEAN_ANOMALY":75.3983,"EPHEMERIS_TYPE":0,"CLASSIFICATION_TYPE":"U","NORAD_CAT_ID":67812,"ELEMENT_SET_NO":999,"REV_AT_EPOCH":487,"BSTAR":-4.4389922e-5,"MEAN_MOTION_DOT":-6.745e-5,"MEAN_MOTION_DDOT":0},{"OBJECT_NAME":"STARLINK-36732","OBJECT_ID":"2026-032S","EPOCH":"2026-03-10T05:27:37.398816","MEAN_MOTION":15.7526327,"ECCENTRICITY":0.0001643,"INCLINATION":97.2848,"RA_OF_ASC_NODE":255.8234,"ARG_OF_PERICENTER":88.5658,"MEAN_ANOMALY":271.5796,"EPHEMERIS_TYPE":0,"CLASSIFICATION_TYPE":"U","NORAD_CAT_ID":67813,"ELEMENT_SET_NO":999,"REV_AT_EPOCH":487,"BSTAR":0.0010501667,"MEAN_MOTION_DOT":0.00159985,"MEAN_MOTION_DDOT":0},{"OBJECT_NAME":"STARLINK-36767","OBJECT_ID":"2026-032T","EPOCH":"2026-03-10T05:56:04.980768","MEAN_MOTION":15.75242862,"ECCENTRICITY":0.00013448,"INCLINATION":97.2845,"RA_OF_ASC_NODE":255.7964,"ARG_OF_PERICENTER":78.3436,"MEAN_ANOMALY":281.798,"EPHEMERIS_TYPE":0,"CLASSIFICATION_TYPE":"U","NORAD_CAT_ID":67814,"ELEMENT_SET_NO":999,"REV_AT_EPOCH":487,"BSTAR":0.00093280182,"MEAN_MOTION_DOT":0.00141658,"MEAN_MOTION_DDOT":0},{"OBJECT_NAME":"STARLINK-36797","OBJECT_ID":"2026-032U","EPOCH":"2026-03-10T05:43:22.754784","MEAN_MOTION":15.75223844,"ECCENTRICITY":0.00014478,"INCLINATION":97.2849,"RA_OF_ASC_NODE":255.8096,"ARG_OF_PERICENTER":71.5904,"MEAN_ANOMALY":288.5519,"EPHEMERIS_TYPE":0,"CLASSIFICATION_TYPE":"U","NORAD_CAT_ID":67815,"ELEMENT_SET_NO":999,"REV_AT_EPOCH":487,"BSTAR":0.00053826793,"MEAN_MOTION_DOT":0.00081041,"MEAN_MOTION_DDOT":0},{"OBJECT_NAME":"STARLINK-36343","OBJECT_ID":"2026-032V","EPOCH":"2026-03-10T06:00:02.000160","MEAN_MOTION":15.75189316,"ECCENTRICITY":0.00015061,"INCLINATION":97.2844,"RA_OF_ASC_NODE":255.8696,"ARG_OF_PERICENTER":85.0707,"MEAN_ANOMALY":92.6061,"EPHEMERIS_TYPE":0,"CLASSIFICATION_TYPE":"U","NORAD_CAT_ID":67816,"ELEMENT_SET_NO":999,"REV_AT_EPOCH":481,"BSTAR":-0.0002503604,"MEAN_MOTION_DOT":-0.00037309,"MEAN_MOTION_DDOT":0},{"OBJECT_NAME":"STARLINK-36756","OBJECT_ID":"2026-032W","EPOCH":"2026-03-10T05:30:40.362048","MEAN_MOTION":15.75241151,"ECCENTRICITY":0.00013252,"INCLINATION":97.2845,"RA_OF_ASC_NODE":255.8205,"ARG_OF_PERICENTER":99.2316,"MEAN_ANOMALY":260.9099,"EPHEMERIS_TYPE":0,"CLASSIFICATION_TYPE":"U","NORAD_CAT_ID":67817,"ELEMENT_SET_NO":999,"REV_AT_EPOCH":486,"BSTAR":0.00075328128,"MEAN_MOTION_DOT":0.0011399,"MEAN_MOTION_DDOT":0},{"OBJECT_NAME":"STARLINK-36346","OBJECT_ID":"2026-032X","EPOCH":"2026-03-10T06:00:02.000160","MEAN_MOTION":15.75188891,"ECCENTRICITY":0.00016882,"INCLINATION":97.2848,"RA_OF_ASC_NODE":255.8806,"ARG_OF_PERICENTER":83.2773,"MEAN_ANOMALY":118.3974,"EPHEMERIS_TYPE":0,"CLASSIFICATION_TYPE":"U","NORAD_CAT_ID":67818,"ELEMENT_SET_NO":999,"REV_AT_EPOCH":487,"BSTAR":-0.00027523247,"MEAN_MOTION_DOT":-0.00040986,"MEAN_MOTION_DDOT":0},{"OBJECT_NAME":"STARLINK-36788","OBJECT_ID":"2026-032Y","EPOCH":"2026-03-10T05:46:25.185792","MEAN_MOTION":15.75329153,"ECCENTRICITY":0.00012777,"INCLINATION":97.2846,"RA_OF_ASC_NODE":255.8057,"ARG_OF_PERICENTER":70.2984,"MEAN_ANOMALY":289.8419,"EPHEMERIS_TYPE":0,"CLASSIFICATION_TYPE":"U","NORAD_CAT_ID":67819,"ELEMENT_SET_NO":999,"REV_AT_EPOCH":487,"BSTAR":0.0020021868,"MEAN_MOTION_DOT":0.00311536,"MEAN_MOTION_DDOT":0},{"OBJECT_NAME":"STARLINK-36353","OBJECT_ID":"2026-032Z","EPOCH":"2026-03-10T05:40:50.283840","MEAN_MOTION":15.75232485,"ECCENTRICITY":0.00014358,"INCLINATION":97.2845,"RA_OF_ASC_NODE":255.8108,"ARG_OF_PERICENTER":81.8918,"MEAN_ANOMALY":278.251,"EPHEMERIS_TYPE":0,"CLASSIFICATION_TYPE":"U","NORAD_CAT_ID":67820,"ELEMENT_SET_NO":999,"REV_AT_EPOCH":487,"BSTAR":0.00069606533,"MEAN_MOTION_DOT":0.00105174,"MEAN_MOTION_DDOT":0},{"OBJECT_NAME":"STARLINK-36644","OBJECT_ID":"2026-033A","EPOCH":"2026-03-10T00:14:22.513056","MEAN_MOTION":15.82115049,"ECCENTRICITY":0.00016439,"INCLINATION":42.999,"RA_OF_ASC_NODE":269.5632,"ARG_OF_PERICENTER":289.5078,"MEAN_ANOMALY":70.5616,"EPHEMERIS_TYPE":0,"CLASSIFICATION_TYPE":"U","NORAD_CAT_ID":67821,"ELEMENT_SET_NO":999,"REV_AT_EPOCH":467,"BSTAR":0.00138357,"MEAN_MOTION_DOT":0.00302609,"MEAN_MOTION_DDOT":0},{"OBJECT_NAME":"STARLINK-36643","OBJECT_ID":"2026-033B","EPOCH":"2026-03-10T00:13:17.640480","MEAN_MOTION":15.82128842,"ECCENTRICITY":0.00017645,"INCLINATION":42.9985,"RA_OF_ASC_NODE":269.556,"ARG_OF_PERICENTER":263.9802,"MEAN_ANOMALY":96.0868,"EPHEMERIS_TYPE":0,"CLASSIFICATION_TYPE":"U","NORAD_CAT_ID":67822,"ELEMENT_SET_NO":999,"REV_AT_EPOCH":467,"BSTAR":0.0014268164,"MEAN_MOTION_DOT":0.00312654,"MEAN_MOTION_DDOT":0},{"OBJECT_NAME":"STARLINK-36646","OBJECT_ID":"2026-033C","EPOCH":"2026-03-10T00:12:13.019328","MEAN_MOTION":15.8212419,"ECCENTRICITY":0.00018813,"INCLINATION":42.9983,"RA_OF_ASC_NODE":269.5506,"ARG_OF_PERICENTER":264.37,"MEAN_ANOMALY":95.6957,"EPHEMERIS_TYPE":0,"CLASSIFICATION_TYPE":"U","NORAD_CAT_ID":67823,"ELEMENT_SET_NO":999,"REV_AT_EPOCH":467,"BSTAR":0.0014504387,"MEAN_MOTION_DOT":0.00317968,"MEAN_MOTION_DDOT":0},{"OBJECT_NAME":"STARLINK-36647","OBJECT_ID":"2026-033D","EPOCH":"2026-03-10T00:11:08.215872","MEAN_MOTION":15.82144721,"ECCENTRICITY":0.00023367,"INCLINATION":42.9984,"RA_OF_ASC_NODE":269.5445,"ARG_OF_PERICENTER":279.4556,"MEAN_ANOMALY":80.6051,"EPHEMERIS_TYPE":0,"CLASSIFICATION_TYPE":"U","NORAD_CAT_ID":67824,"ELEMENT_SET_NO":999,"REV_AT_EPOCH":467,"BSTAR":0.0018052412,"MEAN_MOTION_DOT":0.00400088,"MEAN_MOTION_DDOT":0},{"OBJECT_NAME":"STARLINK-36648","OBJECT_ID":"2026-033E","EPOCH":"2026-03-10T00:10:03.230976","MEAN_MOTION":15.82150307,"ECCENTRICITY":0.00026228,"INCLINATION":42.9984,"RA_OF_ASC_NODE":269.5384,"ARG_OF_PERICENTER":256.0985,"MEAN_ANOMALY":103.9596,"EPHEMERIS_TYPE":0,"CLASSIFICATION_TYPE":"U","NORAD_CAT_ID":67825,"ELEMENT_SET_NO":999,"REV_AT_EPOCH":467,"BSTAR":0.0017490113,"MEAN_MOTION_DOT":0.00387127,"MEAN_MOTION_DDOT":0},{"OBJECT_NAME":"STARLINK-35865","OBJECT_ID":"2026-033F","EPOCH":"2026-03-09T22:38:04.136352","MEAN_MOTION":15.82109633,"ECCENTRICITY":0.0002081,"INCLINATION":42.9983,"RA_OF_ASC_NODE":269.918,"ARG_OF_PERICENTER":256.8542,"MEAN_ANOMALY":103.2098,"EPHEMERIS_TYPE":0,"CLASSIFICATION_TYPE":"U","NORAD_CAT_ID":67826,"ELEMENT_SET_NO":999,"REV_AT_EPOCH":466,"BSTAR":0.0012998,"MEAN_MOTION_DOT":0.00283558,"MEAN_MOTION_DDOT":0}]
